IRIDIUM 144             
1 43249U 18030A   25155.57360423  .00000014  00000+0 -21598-5 0  9997
2 43249  86.3958  88.2783 0002249  82.8323 277.3129 14.34217607376015
IRIDIUM 149             
1 43250U 18030B   25155.51017618  .00000153  00000+0  47531-4 0  9995
2 43250  86.3956  88.2759 0002379  82.5620 277.5847 14.34218518376021
IRIDIUM 157             
1 43251U 18030C   25155.52920473  .00000040  00000+0  72349-5 0  9990
2 43251  86.3957  88.3129 0002016  85.9409 274.2017 14.34217597376002
IRIDIUM 140             
1 43252U 18030D   25155.54823393 -.00000015  00000+0 -12504-4 0  9996
2 43252  86.3957  88.3187 0002367  84.0541 276.0925 14.34217385376062
IRIDIUM 145             
1 43253U 18030E   25155.53554800  .00000085  00000+0  23355-4 0  9991
2 43253  86.3958  88.2966 0002592  78.6122 281.5365 14.34214224375991
IRIDIUM 146             
1 43254U 18030F   25155.51652689  .00000301  00000+0  10056-3 0  9998
2 43254  86.3956  88.3183 0002604  77.9560 282.1927 14.34214954376008
IRIDIUM 148             
1 43255U 18030G   25155.55457399  .00000306  00000+0  10226-3 0  9998
2 43255  86.3957  88.3396 0002198  81.1935 278.9510 14.34219542376051
IRIDIUM 142             
1 43256U 18030H   25155.52286282  .00000123  00000+0  36962-4 0  9990
2 43256  86.3955  88.2555 0002550  74.0714 286.0763 14.34218235376007
